[{"OBJECT_NAME":"TRANSPORTER-10 OBJECT AG","OBJECT_ID":"2024-043AG","EPOCH":"2026-03-09T22:12:45.387648","MEAN_MOTION":15.30759727,"ECCENTRICITY":0.00093005,"INCLINATION":97.5471,"RA_OF_ASC_NODE":205.7101,"ARG_OF_PERICENTER":226.5958,"MEAN_ANOMALY":133.4509,"EPHEMERIS_TYPE":0,"CLASSIFICATION_TYPE":"U","NORAD_CAT_ID":59128,"ELEMENT_SET_NO":999,"REV_AT_EPOCH":11192,"BSTAR":0.00032170115,"MEAN_MOTION_DOT":9.498e-5,"MEAN_MOTION_DDOT":0},{"OBJECT_NAME":"STARLINK-33875","OBJECT_ID":"2025-091Q","EPOCH":"2026-03-09T22:44:58.217856","MEAN_MOTION":15.27624461,"ECCENTRICITY":0.00011279,"INCLINATION":43.0018,"RA_OF_ASC_NODE":50.8927,"ARG_OF_PERICENTER":214.8728,"MEAN_ANOMALY":145.205,"EPHEMERIS_TYPE":0,"CLASSIFICATION_TYPE":"U","NORAD_CAT_ID":63789,"ELEMENT_SET_NO":999,"REV_AT_EPOCH":4894,"BSTAR":0.001093754,"MEAN_MOTION_DOT":0.00029999,"MEAN_MOTION_DDOT":0}]
